CCSDS_OMM_VERS = 2.0
CREATION_DATE  = 
ORIGINATOR     = 

OBJECT_NAME    = ALOS (DAICHI)
OBJECT_ID      = 2006-002A
CENTER_NAME    = EARTH
REF_FRAME      = TEME
TIME_SYSTEM    = UTC
MEAN_ELEMENT_THEORY = SGP/SGP4

EPOCH          = 2026-01-11T20:36:59.439456
MEAN_MOTION    = 14.69597289
ECCENTRICITY   = .00020952
INCLINATION    = 98.1131
RA_OF_ASC_NODE = 328.1427
ARG_OF_PERICENTER = 94.1489
MEAN_ANOMALY   = 265.9956

EPHEMERIS_TYPE = 0
CLASSIFICATION_TYPE = U
NORAD_CAT_ID   = 28931
ELEMENT_SET_NO = 999
REV_AT_EPOCH   = 6513
BSTAR          = .234316E-3
MEAN_MOTION_DOT = .1343E-4
MEAN_MOTION_DDOT = 0

CCSDS_OMM_VERS = 2.0
CREATION_DATE  = 
ORIGINATOR     = 

OBJECT_NAME    = H-2A R/B
OBJECT_ID      = 2006-002B
CENTER_NAME    = EARTH
REF_FRAME      = TEME
TIME_SYSTEM    = UTC
MEAN_ELEMENT_THEORY = SGP/SGP4

EPOCH          = 2026-01-12T07:13:56.574336
MEAN_MOTION    = 15.15263531
ECCENTRICITY   = .00546297
INCLINATION    = 98.2327
RA_OF_ASC_NODE = 154.5650
ARG_OF_PERICENTER = 73.5586
MEAN_ANOMALY   = 287.1638

EPHEMERIS_TYPE = 0
CLASSIFICATION_TYPE = U
NORAD_CAT_ID   = 28932
ELEMENT_SET_NO = 999
REV_AT_EPOCH   = 8589
BSTAR          = .43449731E-3
MEAN_MOTION_DOT = .8409E-4
MEAN_MOTION_DDOT = 0

CCSDS_OMM_VERS = 2.0
CREATION_DATE  = 
ORIGINATOR     = 

OBJECT_NAME    = RESURS-DK 1
OBJECT_ID      = 2006-021A
CENTER_NAME    = EARTH
REF_FRAME      = TEME
TIME_SYSTEM    = UTC
MEAN_ELEMENT_THEORY = SGP/SGP4

EPOCH          = 2026-01-11T23:49:17.691168
MEAN_MOTION    = 15.12364517
ECCENTRICITY   = .00061349
INCLINATION    = 69.9340
RA_OF_ASC_NODE = 23.6422
ARG_OF_PERICENTER = 233.0442
MEAN_ANOMALY   = 127.0162

EPHEMERIS_TYPE = 0
CLASSIFICATION_TYPE = U
NORAD_CAT_ID   = 29228
ELEMENT_SET_NO = 999
REV_AT_EPOCH   = 7895
BSTAR          = .15397825E-3
MEAN_MOTION_DOT = .257E-4
MEAN_MOTION_DDOT = 0

CCSDS_OMM_VERS = 2.0
CREATION_DATE  = 
ORIGINATOR     = 

OBJECT_NAME    = CZ-4B R/B
OBJECT_ID      = 2006-046C
CENTER_NAME    = EARTH
REF_FRAME      = TEME
TIME_SYSTEM    = UTC
MEAN_ELEMENT_THEORY = SGP/SGP4

EPOCH          = 2026-01-12T01:33:02.102688
MEAN_MOTION    = 15.16233809
ECCENTRICITY   = .00352753
INCLINATION    = 97.5700
RA_OF_ASC_NODE = 57.1213
ARG_OF_PERICENTER = 103.2600
MEAN_ANOMALY   = 257.2571

EPHEMERIS_TYPE = 0
CLASSIFICATION_TYPE = U
NORAD_CAT_ID   = 29507
ELEMENT_SET_NO = 999
REV_AT_EPOCH   = 5146
BSTAR          = .30854567E-3
MEAN_MOTION_DOT = .5991E-4
MEAN_MOTION_DDOT = 0

CCSDS_OMM_VERS = 2.0
CREATION_DATE  = 
ORIGINATOR     = 

OBJECT_NAME    = CZ-2C R/B
OBJECT_ID      = 2007-010B
CENTER_NAME    = EARTH
REF_FRAME      = TEME
TIME_SYSTEM    = UTC
MEAN_ELEMENT_THEORY = SGP/SGP4

EPOCH          = 2026-01-12T07:04:44.237280
MEAN_MOTION    = 14.20224091
ECCENTRICITY   = .00601373
INCLINATION    = 98.3972
RA_OF_ASC_NODE = 128.4084
ARG_OF_PERICENTER = 98.1570
MEAN_ANOMALY   = 262.6435

EPHEMERIS_TYPE = 0
CLASSIFICATION_TYPE = U
NORAD_CAT_ID   = 31114
ELEMENT_SET_NO = 999
REV_AT_EPOCH   = 97171
BSTAR          = .70159412E-4
MEAN_MOTION_DOT = .112E-5
MEAN_MOTION_DDOT = 0

CCSDS_OMM_VERS = 2.0
CREATION_DATE  = 
ORIGINATOR     = 

OBJECT_NAME    = COSMO-SKYMED 1
OBJECT_ID      = 2007-023A
CENTER_NAME    = EARTH
REF_FRAME      = TEME
TIME_SYSTEM    = UTC
MEAN_ELEMENT_THEORY = SGP/SGP4

EPOCH          = 2026-01-12T06:58:12.986112
MEAN_MOTION    = 14.96042405
ECCENTRICITY   = .00014498
INCLINATION    = 97.8852
RA_OF_ASC_NODE = 202.8960
ARG_OF_PERICENTER = 77.6465
MEAN_ANOMALY   = 282.4918

EPHEMERIS_TYPE = 0
CLASSIFICATION_TYPE = U
NORAD_CAT_ID   = 31598
ELEMENT_SET_NO = 999
REV_AT_EPOCH   = 647
BSTAR          = .27608523E-3
MEAN_MOTION_DOT = .3041E-4
MEAN_MOTION_DDOT = 0

CCSDS_OMM_VERS = 2.0
CREATION_DATE  = 
ORIGINATOR     = 

OBJECT_NAME    = COSMOS 2428
OBJECT_ID      = 2007-029A
CENTER_NAME    = EARTH
REF_FRAME      = TEME
TIME_SYSTEM    = UTC
MEAN_ELEMENT_THEORY = SGP/SGP4

EPOCH          = 2026-01-12T06:02:59.188416
MEAN_MOTION    = 14.12908031
ECCENTRICITY   = .00054876
INCLINATION    = 70.9394
RA_OF_ASC_NODE = 321.8169
ARG_OF_PERICENTER = 342.3362
MEAN_ANOMALY   = 17.7568

EPHEMERIS_TYPE = 0
CLASSIFICATION_TYPE = U
NORAD_CAT_ID   = 31792
ELEMENT_SET_NO = 999
REV_AT_EPOCH   = 95612
BSTAR          = .2115655E-3
MEAN_MOTION_DOT = .346E-5
MEAN_MOTION_DDOT = 0

CCSDS_OMM_VERS = 2.0
CREATION_DATE  = 
ORIGINATOR     = 

OBJECT_NAME    = SL-16 R/B
OBJECT_ID      = 2007-029B
CENTER_NAME    = EARTH
REF_FRAME      = TEME
TIME_SYSTEM    = UTC
MEAN_ELEMENT_THEORY = SGP/SGP4

EPOCH          = 2026-01-12T05:38:08.336544
MEAN_MOTION    = 14.14825224
ECCENTRICITY   = .00022496
INCLINATION    = 70.9768
RA_OF_ASC_NODE = 291.0559
ARG_OF_PERICENTER = 273.5304
MEAN_ANOMALY   = 248.2162

EPHEMERIS_TYPE = 0
CLASSIFICATION_TYPE = U
NORAD_CAT_ID   = 31793
ELEMENT_SET_NO = 999
REV_AT_EPOCH   = 95738
BSTAR          = -.72664126E-4
MEAN_MOTION_DOT = -.188E-5
MEAN_MOTION_DDOT = 0

CCSDS_OMM_VERS = 2.0
CREATION_DATE  = 
ORIGINATOR     = 

OBJECT_NAME    = KORONAS-FOTON
OBJECT_ID      = 2009-003A
CENTER_NAME    = EARTH
REF_FRAME      = TEME
TIME_SYSTEM    = UTC
MEAN_ELEMENT_THEORY = SGP/SGP4

EPOCH          = 2026-01-12T06:19:38.380224
MEAN_MOTION    = 15.41870101
ECCENTRICITY   = .00114922
INCLINATION    = 82.4318
RA_OF_ASC_NODE = 334.4618
ARG_OF_PERICENTER = 12.6155
MEAN_ANOMALY   = 347.5377

EPHEMERIS_TYPE = 0
CLASSIFICATION_TYPE = U
NORAD_CAT_ID   = 33504
ELEMENT_SET_NO = 999
REV_AT_EPOCH   = 93704
BSTAR          = .23542739E-3
MEAN_MOTION_DOT = .1005E-3
MEAN_MOTION_DDOT = 0

CCSDS_OMM_VERS = 2.0
CREATION_DATE  = 
ORIGINATOR     = 

OBJECT_NAME    = CZ-2C R/B
OBJECT_ID      = 2011-030B
CENTER_NAME    = EARTH
REF_FRAME      = TEME
TIME_SYSTEM    = UTC
MEAN_ELEMENT_THEORY = SGP/SGP4

EPOCH          = 2026-01-11T20:40:52.232160
MEAN_MOTION    = 14.81005647
ECCENTRICITY   = .00528096
INCLINATION    = 97.8452
RA_OF_ASC_NODE = 330.3103
ARG_OF_PERICENTER = 173.7291
MEAN_ANOMALY   = 240.5360

EPHEMERIS_TYPE = 0
CLASSIFICATION_TYPE = U
NORAD_CAT_ID   = 37731
ELEMENT_SET_NO = 999
REV_AT_EPOCH   = 78168
BSTAR          = .15737967E-3
MEAN_MOTION_DOT = .1194E-4
MEAN_MOTION_DDOT = 0

CCSDS_OMM_VERS = 2.0
CREATION_DATE  = 
ORIGINATOR     = 

OBJECT_NAME    = H-2A R/B
OBJECT_ID      = 2012-025E
CENTER_NAME    = EARTH
REF_FRAME      = TEME
TIME_SYSTEM    = UTC
MEAN_ELEMENT_THEORY = SGP/SGP4

EPOCH          = 2026-01-11T23:14:25.772640
MEAN_MOTION    = 14.94666867
ECCENTRICITY   = .00460199
INCLINATION    = 98.4636
RA_OF_ASC_NODE = 334.5406
ARG_OF_PERICENTER = 136.7746
MEAN_ANOMALY   = 223.7099

EPHEMERIS_TYPE = 0
CLASSIFICATION_TYPE = U
NORAD_CAT_ID   = 38341
ELEMENT_SET_NO = 999
REV_AT_EPOCH   = 73974
BSTAR          = .33921534E-3
MEAN_MOTION_DOT = .3687E-4
MEAN_MOTION_DDOT = 0

CCSDS_OMM_VERS = 2.0
CREATION_DATE  = 
ORIGINATOR     = 

OBJECT_NAME    = SHIJIAN-16 (SJ-16)
OBJECT_ID      = 2013-057A
CENTER_NAME    = EARTH
REF_FRAME      = TEME
TIME_SYSTEM    = UTC
MEAN_ELEMENT_THEORY = SGP/SGP4

EPOCH          = 2026-01-12T07:29:36.634848
MEAN_MOTION    = 14.92132387
ECCENTRICITY   = .0017801
INCLINATION    = 74.9732
RA_OF_ASC_NODE = 291.8024
ARG_OF_PERICENTER = 249.0977
MEAN_ANOMALY   = 110.8306

EPHEMERIS_TYPE = 0
CLASSIFICATION_TYPE = U
NORAD_CAT_ID   = 39358
ELEMENT_SET_NO = 999
REV_AT_EPOCH   = 66309
BSTAR          = .23963505E-3
MEAN_MOTION_DOT = .2416E-4
MEAN_MOTION_DDOT = 0

