ALOS (DAICHI)           
1 28931U 06002A   26011.85902129  .00001343  00000+0  23432-3 0  9994
2 28931  98.1131 328.1427 0002095  94.1489 265.9956 14.69597289 65133
H-2A R/B                
1 28932U 06002B   26012.30134924  .00008409  00000+0  43450-3 0  9998
2 28932  98.2327 154.5650 0054629  73.5586 287.1638 15.15263531 85890
RESURS-DK 1             
1 29228U 06021A   26011.99256587  .00002570  00000+0  15398-3 0  9995
2 29228  69.9340  23.6422 0006134 233.0442 127.0162 15.12364517 78950
CZ-4B R/B               
1 29507U 06046C   26012.06460767  .00005991  00000+0  30855-3 0  9993
2 29507  97.5700  57.1213 0035275 103.2600 257.2571 15.16233809 51469
CZ-2C R/B               
1 31114U 07010B   26012.29495645  .00000112  00000+0  70159-4 0  9992
2 31114  98.3972 128.4084 0060137  98.1570 262.6435 14.20224091971712
COSMO-SKYMED 1          
1 31598U 07023A   26012.29042808  .00003041  00000+0  27609-3 0  9996
2 31598  97.8852 202.8960 0001449  77.6465 282.4918 14.96042405  6473
COSMOS 2428             
1 31792U 07029A   26012.25207394  .00000346  00000+0  21157-3 0  9994
2 31792  70.9394 321.8169 0005487 342.3362  17.7568 14.12908031956129
SL-16 R/B               
1 31793U 07029B   26012.23481871 -.00000188  00000+0 -72664-4 0  9993
2 31793  70.9768 291.0559 0002249 273.5304 248.2162 14.14825224957384
KORONAS-FOTON           
1 33504U 09003A   26012.26363866  .00010050  00000+0  23543-3 0  9993
2 33504  82.4318 334.4618 0011492  12.6155 347.5377 15.41870101937046
CZ-2C R/B               
1 37731U 11030B   26011.86171565  .00001194  00000+0  15738-3 0  9996
2 37731  97.8452 330.3103 0052809 173.7291 240.5360 14.81005647781681
H-2A R/B                
1 38341U 12025E   26011.96835385  .00003687  00000+0  33922-3 0  9991
2 38341  98.4636 334.5406 0046019 136.7746 223.7099 14.94666867739745
SHIJIAN-16 (SJ-16)      
1 39358U 13057A   26012.31222957  .00002416  00000+0  23964-3 0  9995
2 39358  74.9732 291.8024 0017801 249.0977 110.8306 14.92132387663096
